CCSDS_OMM_VERS = 2.0
CREATION_DATE  = 
ORIGINATOR     = 

OBJECT_NAME    = ELECTRON KICK STAGE R/B
OBJECT_ID      = 2025-297C
CENTER_NAME    = EARTH
REF_FRAME      = TEME
TIME_SYSTEM    = UTC
MEAN_ELEMENT_THEORY = SGP/SGP4

EPOCH          = 2026-01-04T09:20:57.181344
MEAN_MOTION    = 15.69340207
ECCENTRICITY   = .01600097
INCLINATION    = 97.4771
RA_OF_ASC_NODE = 158.0727
ARG_OF_PERICENTER = 187.0427
MEAN_ANOMALY   = 172.8589

EPHEMERIS_TYPE = 0
CLASSIFICATION_TYPE = U
NORAD_CAT_ID   = 67074
ELEMENT_SET_NO = 999
REV_AT_EPOCH   = 331
BSTAR          = .19813063E-2
MEAN_MOTION_DOT = .491715E-2
MEAN_MOTION_DDOT = .7495815E-4

CCSDS_OMM_VERS = 2.0
CREATION_DATE  = 
ORIGINATOR     = 

OBJECT_NAME    = STARLINK-36230
OBJECT_ID      = 2025-298A
CENTER_NAME    = EARTH
REF_FRAME      = TEME
TIME_SYSTEM    = UTC
MEAN_ELEMENT_THEORY = SGP/SGP4

EPOCH          = 2026-01-04T20:00:01.999872
MEAN_MOTION    = 15.52512880
ECCENTRICITY   = .0003616
INCLINATION    = 69.9994
RA_OF_ASC_NODE = 184.9780
ARG_OF_PERICENTER = 274.4676
MEAN_ANOMALY   = 134.0707

EPHEMERIS_TYPE = 0
CLASSIFICATION_TYPE = U
NORAD_CAT_ID   = 67075
ELEMENT_SET_NO = 999
REV_AT_EPOCH   = 468
BSTAR          = .41863E-3
MEAN_MOTION_DOT = .25666E-3
MEAN_MOTION_DDOT = 0

CCSDS_OMM_VERS = 2.0
CREATION_DATE  = 
ORIGINATOR     = 

OBJECT_NAME    = STARLINK-36240
OBJECT_ID      = 2025-298B
CENTER_NAME    = EARTH
REF_FRAME      = TEME
TIME_SYSTEM    = UTC
MEAN_ELEMENT_THEORY = SGP/SGP4

EPOCH          = 2026-01-04T20:00:01.999872
MEAN_MOTION    = 15.52578371
ECCENTRICITY   = .0003594
INCLINATION    = 69.9995
RA_OF_ASC_NODE = 184.9751
ARG_OF_PERICENTER = 270.8568
MEAN_ANOMALY   = 139.5809

EPHEMERIS_TYPE = 0
CLASSIFICATION_TYPE = U
NORAD_CAT_ID   = 67076
ELEMENT_SET_NO = 999
REV_AT_EPOCH   = 468
BSTAR          = -.15786E-2
MEAN_MOTION_DOT = -.96331E-3
MEAN_MOTION_DDOT = 0

CCSDS_OMM_VERS = 2.0
CREATION_DATE  = 
ORIGINATOR     = 

OBJECT_NAME    = STARLINK-36243
OBJECT_ID      = 2025-298C
CENTER_NAME    = EARTH
REF_FRAME      = TEME
TIME_SYSTEM    = UTC
MEAN_ELEMENT_THEORY = SGP/SGP4

EPOCH          = 2026-01-04T20:00:01.999872
MEAN_MOTION    = 15.52578789
ECCENTRICITY   = .000344
INCLINATION    = 69.9994
RA_OF_ASC_NODE = 184.9728
ARG_OF_PERICENTER = 276.4614
MEAN_ANOMALY   = 135.8965

EPHEMERIS_TYPE = 0
CLASSIFICATION_TYPE = U
NORAD_CAT_ID   = 67077
ELEMENT_SET_NO = 999
REV_AT_EPOCH   = 468
BSTAR          = -.17341E-2
MEAN_MOTION_DOT = -.105675E-2
MEAN_MOTION_DDOT = 0

CCSDS_OMM_VERS = 2.0
CREATION_DATE  = 
ORIGINATOR     = 

OBJECT_NAME    = STARLINK-36236
OBJECT_ID      = 2025-298D
CENTER_NAME    = EARTH
REF_FRAME      = TEME
TIME_SYSTEM    = UTC
MEAN_ELEMENT_THEORY = SGP/SGP4

EPOCH          = 2026-01-04T20:00:01.999872
MEAN_MOTION    = 15.52455463
ECCENTRICITY   = .0003447
INCLINATION    = 69.9995
RA_OF_ASC_NODE = 184.9712
ARG_OF_PERICENTER = 273.5117
MEAN_ANOMALY   = 140.7875

EPHEMERIS_TYPE = 0
CLASSIFICATION_TYPE = U
NORAD_CAT_ID   = 67078
ELEMENT_SET_NO = 999
REV_AT_EPOCH   = 468
BSTAR          = .13649E-2
MEAN_MOTION_DOT = .84507E-3
MEAN_MOTION_DDOT = 0

CCSDS_OMM_VERS = 2.0
CREATION_DATE  = 
ORIGINATOR     = 

OBJECT_NAME    = STARLINK-36159
OBJECT_ID      = 2025-298E
CENTER_NAME    = EARTH
REF_FRAME      = TEME
TIME_SYSTEM    = UTC
MEAN_ELEMENT_THEORY = SGP/SGP4

EPOCH          = 2026-01-04T20:00:01.999872
MEAN_MOTION    = 15.42672044
ECCENTRICITY   = .0003308
INCLINATION    = 69.9994
RA_OF_ASC_NODE = 185.1586
ARG_OF_PERICENTER = 271.3408
MEAN_ANOMALY   = 338.9708

EPHEMERIS_TYPE = 0
CLASSIFICATION_TYPE = U
NORAD_CAT_ID   = 67079
ELEMENT_SET_NO = 999
REV_AT_EPOCH   = 468
BSTAR          = .18733E-2
MEAN_MOTION_DOT = .82658E-3
MEAN_MOTION_DDOT = 0

CCSDS_OMM_VERS = 2.0
CREATION_DATE  = 
ORIGINATOR     = 

OBJECT_NAME    = STARLINK-36158
OBJECT_ID      = 2025-298F
CENTER_NAME    = EARTH
REF_FRAME      = TEME
TIME_SYSTEM    = UTC
MEAN_ELEMENT_THEORY = SGP/SGP4

EPOCH          = 2026-01-04T20:00:01.999872
MEAN_MOTION    = 15.52563710
ECCENTRICITY   = .000365
INCLINATION    = 69.9996
RA_OF_ASC_NODE = 184.9664
ARG_OF_PERICENTER = 282.3195
MEAN_ANOMALY   = 135.7843

EPHEMERIS_TYPE = 0
CLASSIFICATION_TYPE = U
NORAD_CAT_ID   = 67080
ELEMENT_SET_NO = 999
REV_AT_EPOCH   = 462
BSTAR          = -.38335E-1
MEAN_MOTION_DOT = -.2101685E-1
MEAN_MOTION_DDOT = 0

CCSDS_OMM_VERS = 2.0
CREATION_DATE  = 
ORIGINATOR     = 

OBJECT_NAME    = STARLINK-35864
OBJECT_ID      = 2025-298G
CENTER_NAME    = EARTH
REF_FRAME      = TEME
TIME_SYSTEM    = UTC
MEAN_ELEMENT_THEORY = SGP/SGP4

EPOCH          = 2026-01-04T20:00:01.999872
MEAN_MOTION    = 15.49336373
ECCENTRICITY   = .0003776
INCLINATION    = 69.9998
RA_OF_ASC_NODE = 184.9691
ARG_OF_PERICENTER = 280.4971
MEAN_ANOMALY   = 135.4923

EPHEMERIS_TYPE = 0
CLASSIFICATION_TYPE = U
NORAD_CAT_ID   = 67081
ELEMENT_SET_NO = 999
REV_AT_EPOCH   = 468
BSTAR          = -.42526E-1
MEAN_MOTION_DOT = -.2079596E-1
MEAN_MOTION_DDOT = 0

CCSDS_OMM_VERS = 2.0
CREATION_DATE  = 
ORIGINATOR     = 

OBJECT_NAME    = STARLINK-36035
OBJECT_ID      = 2025-298H
CENTER_NAME    = EARTH
REF_FRAME      = TEME
TIME_SYSTEM    = UTC
MEAN_ELEMENT_THEORY = SGP/SGP4

EPOCH          = 2026-01-04T20:00:01.999872
MEAN_MOTION    = 15.46239915
ECCENTRICITY   = .0003747
INCLINATION    = 69.9993
RA_OF_ASC_NODE = 184.9792
ARG_OF_PERICENTER = 275.3777
MEAN_ANOMALY   = 130.9909

EPHEMERIS_TYPE = 0
CLASSIFICATION_TYPE = U
NORAD_CAT_ID   = 67082
ELEMENT_SET_NO = 999
REV_AT_EPOCH   = 468
BSTAR          = -.46171E-1
MEAN_MOTION_DOT = -.2031567E-1
MEAN_MOTION_DDOT = 0

CCSDS_OMM_VERS = 2.0
CREATION_DATE  = 
ORIGINATOR     = 

OBJECT_NAME    = STARLINK-36170
OBJECT_ID      = 2025-298J
CENTER_NAME    = EARTH
REF_FRAME      = TEME
TIME_SYSTEM    = UTC
MEAN_ELEMENT_THEORY = SGP/SGP4

EPOCH          = 2026-01-04T20:00:01.999872
MEAN_MOTION    = 15.52570469
ECCENTRICITY   = .0003497
INCLINATION    = 69.9996
RA_OF_ASC_NODE = 184.9589
ARG_OF_PERICENTER = 273.9798
MEAN_ANOMALY   = 149.8778

EPHEMERIS_TYPE = 0
CLASSIFICATION_TYPE = U
NORAD_CAT_ID   = 67083
ELEMENT_SET_NO = 999
REV_AT_EPOCH   = 468
BSTAR          = -.1396E-2
MEAN_MOTION_DOT = -.85295E-3
MEAN_MOTION_DDOT = 0

CCSDS_OMM_VERS = 2.0
CREATION_DATE  = 
ORIGINATOR     = 

OBJECT_NAME    = STARLINK-36166
OBJECT_ID      = 2025-298K
CENTER_NAME    = EARTH
REF_FRAME      = TEME
TIME_SYSTEM    = UTC
MEAN_ELEMENT_THEORY = SGP/SGP4

EPOCH          = 2026-01-04T20:00:01.999872
MEAN_MOTION    = 15.52508071
ECCENTRICITY   = .0003412
INCLINATION    = 69.9994
RA_OF_ASC_NODE = 184.9566
ARG_OF_PERICENTER = 273.3688
MEAN_ANOMALY   = 152.4235

EPHEMERIS_TYPE = 0
CLASSIFICATION_TYPE = U
NORAD_CAT_ID   = 67084
ELEMENT_SET_NO = 999
REV_AT_EPOCH   = 462
BSTAR          = .53882E-3
MEAN_MOTION_DOT = .33107E-3
MEAN_MOTION_DDOT = 0

CCSDS_OMM_VERS = 2.0
CREATION_DATE  = 
ORIGINATOR     = 

OBJECT_NAME    = STARLINK-35794
OBJECT_ID      = 2025-298L
CENTER_NAME    = EARTH
REF_FRAME      = TEME
TIME_SYSTEM    = UTC
MEAN_ELEMENT_THEORY = SGP/SGP4

EPOCH          = 2026-01-04T20:00:01.999872
MEAN_MOTION    = 15.42632661
ECCENTRICITY   = .0003705
INCLINATION    = 69.9998
RA_OF_ASC_NODE = 185.0006
ARG_OF_PERICENTER = 269.8245
MEAN_ANOMALY   = 118.5137

EPHEMERIS_TYPE = 0
CLASSIFICATION_TYPE = U
NORAD_CAT_ID   = 67085
ELEMENT_SET_NO = 999
REV_AT_EPOCH   = 468
BSTAR          = .16394E-2
MEAN_MOTION_DOT = .7213E-3
MEAN_MOTION_DDOT = 0

