ELECTRON KICK STAGE R/B 
1 67074U 25297C   26004.38955071  .00491715  74958-4  19813-2 0  9997
2 67074  97.4771 158.0727 0160009 187.0427 172.8589 15.69340207  3310
STARLINK-36230          
1 67075U 25298A   26004.83335648  .00025666  00000+0  41863-3 0  9992
2 67075  69.9994 184.9780 0003616 274.4676 134.0707 15.52512880  4689
STARLINK-36240          
1 67076U 25298B   26004.83335648 -.00096331  00000+0 -15786-2 0  9996
2 67076  69.9995 184.9751 0003594 270.8568 139.5809 15.52578371  4684
STARLINK-36243          
1 67077U 25298C   26004.83335648 -.00105675  00000+0 -17341-2 0  9998
2 67077  69.9994 184.9728 0003440 276.4614 135.8965 15.52578789  4687
STARLINK-36236          
1 67078U 25298D   26004.83335648  .00084507  00000+0  13649-2 0  9994
2 67078  69.9995 184.9712 0003447 273.5117 140.7875 15.52455463  4683
STARLINK-36159          
1 67079U 25298E   26004.83335648  .00082658  00000+0  18733-2 0  9999
2 67079  69.9994 185.1586 0003308 271.3408 338.9708 15.42672044  4681
STARLINK-36158          
1 67080U 25298F   26004.83335648 -.02101685  00000+0 -38335-1 0  9996
2 67080  69.9996 184.9664 0003650 282.3195 135.7843 15.52563710  4621
STARLINK-35864          
1 67081U 25298G   26004.83335648 -.02079596  00000+0 -42526-1 0  9999
2 67081  69.9998 184.9691 0003776 280.4971 135.4923 15.49336373  4685
STARLINK-36035          
1 67082U 25298H   26004.83335648 -.02031567  00000+0 -46171-1 0  9996
2 67082  69.9993 184.9792 0003747 275.3777 130.9909 15.46239915  4683
STARLINK-36170          
1 67083U 25298J   26004.83335648 -.00085295  00000+0 -13960-2 0  9993
2 67083  69.9996 184.9589 0003497 273.9798 149.8778 15.52570469  4682
STARLINK-36166          
1 67084U 25298K   26004.83335648  .00033107  00000+0  53882-3 0  9995
2 67084  69.9994 184.9566 0003412 273.3688 152.4235 15.52508071  4627
STARLINK-35794          
1 67085U 25298L   26004.83335648  .00072130  00000+0  16394-2 0  9991
2 67085  69.9998 185.0006 0003705 269.8245 118.5137 15.42632661  4689
